STARLINK-31898          
1 59905U 24100W   26068.21243619  .00002071  00000+0  84769-4 0  9992
2 59905  43.0030 124.6550 0001380 267.8418  92.2276 15.27580842101115
FLOCK 4G-7              
1 62624U 25009R   26068.79996108  .00011422  00000+0  43168-3 0  9991
2 62624  97.3984 150.8270 0001396 336.9783  23.1393 15.27141471 63725
